NORAD_CAT_ID,OBJECT_NAME,OBJECT_TYPE,EPOCH,MEAN_MOTION,ECCENTRICITY,INCLINATION,RA_OF_ASC_NODE,ARG_OF_PERICENTER,MEAN_ANOMALY,BSTAR,MEAN_MOTION_DOT,MEAN_MOTION_DDOT,TLE_LINE0,TLE_LINE1,TLE_LINE2,SEMIMAJOR_AXIS,PERIOD,APOGEE,PERIGEE,DECAYED
52575.0,STARLINK-3920,PAYLOAD,2022-08-20 14:00:01,15.08840805,0.000225,53.2137,182.0488,53.0816,7.8919,-0.0030404,-0.00048355,0.0,0 STARLINK-3920,1 52575U 22051AR  22232.58334491 -.00048355  00000-0 -30404-2 0  9992,2 52575  53.2137 182.0488 0002250  53.0816   7.8919 15.08840805  1307,6917.878000000002,95.438,541.299,538.186,0.0
52575.0,STARLINK-3920,PAYLOAD,2022-08-20 22:00:00,15.08822266,0.0002218,53.2137,180.5524,55.7078,16.8326,-0.0001894,-3.3e-05,0.0,0 STARLINK-3920,1 52575U 22051AR  22232.91667824 -.00003300  00000-0 -18940-3 0  9991,2 52575  53.2137 180.5524 0002218  55.7078  16.8326 15.08822266 15885,6917.935,95.439,541.3340000000002,538.265,0.0
52575.0,STARLINK-3920,PAYLOAD,2022-08-21 14:00:01,15.08825379,0.0002271,53.2135,177.5597,54.3728,41.307,-0.00030719,-5.172e-05,0.0,0 STARLINK-3920,1 52575U 22051AR  22233.58334491 -.00005172  00000-0 -30719-3 0  9993,2 52575  53.2135 177.5597 0002271  54.3728  41.3070 15.08825379  1304,6917.925,95.438,541.361,538.219,0.0
52575.0,STARLINK-3920,PAYLOAD,2022-08-21 22:00:00,15.08840078,0.0002316999999999,53.2135,176.0632,57.1835,50.0656,-0.00054228,-8.909e-05,0.0,0 STARLINK-3920,1 52575U 22051AR  22233.91667824 -.00008909  00000-0 -54228-3 0  9991,2 52575  53.2135 176.0632 0002317  57.1835  50.0656 15.08840078  1309,6917.88,95.438,541.3480000000002,538.1419999999998,0.0
52575.0,STARLINK-3920,PAYLOAD,2022-08-22 06:00:00,15.08811995,0.0002458,53.2136,174.5684,52.3979,66.4475,0.0028273,0.00044962,0.0,0 STARLINK-3920,1 52575U 22051AR  22234.25001157  .00044962  00000-0  28273-2 0  9997,2 52575  53.2136 174.5684 0002458  52.3979  66.4475 15.08811995 16089,6917.965999999999,95.439,541.531,538.131,0.0
52575.0,STARLINK-3920,PAYLOAD,2022-08-22 12:00:00,15.0885315,0.0002414,53.2135,173.4449,53.9037,343.621,-0.0018537,-0.00029681,0.0,0 STARLINK-3920,1 52575U 22051AR  22234.50001157 -.00029681  00000-0 -18537-2 0  9990,2 52575  53.2135 173.4449 0002414  53.9037 343.6210 15.08853150  1304,6917.84,95.437,541.375,538.035,0.0
52575.0,STARLINK-3920,PAYLOAD,2022-08-22 22:00:00,15.08858436,0.0002431,53.2139,171.5739,58.1886,83.8288,-0.00082176,-0.0001335,0.0,0 STARLINK-3920,1 52575U 22051AR  22234.91667824 -.00013350  00000-0 -82176-3 0  9991,2 52575  53.2139 171.5739 0002431  58.1886  83.8288 15.08858436 16189,6917.824000000001,95.436,541.371,538.007,0.0
52575.0,STARLINK-3920,PAYLOAD,2022-08-23 14:00:01,15.08843908,0.0002381999999999,53.2143,168.5809,56.0811,109.1543,-0.0016359,-0.00026233,0.0,0 STARLINK-3920,1 52575U 22051AR  22235.58334491 -.00026233  00000-0 -16359-2 0  9999,2 52575  53.2143 168.5809 0002382  56.0811 109.1543 15.08843908  1300,6917.868,95.437,541.381,538.086,0.0
52575.0,STARLINK-3920,PAYLOAD,2022-08-23 22:00:01,15.08846249,0.0002440999999999,53.2146,167.0847,57.7815,119.1025,-0.0011187,-0.00018052,0.0,0 STARLINK-3920,1 52575U 22051AR  22235.91668981 -.00018052  00000-0 -11187-2 0  9994,2 52575  53.2146 167.0847 0002441  57.7815 119.1025 15.08846249 16333,6917.861,95.437,541.415,538.038,0.0
52575.0,STARLINK-3920,PAYLOAD,2022-08-24 14:00:01,15.08831421,0.0002440999999999,53.215,164.0917,57.4122,142.5968,0.0010018,0.00015688,0.0,0 STARLINK-3920,1 52575U 22051AR  22236.58334491  .00015688  00000-0  10018-2 0  9996,2 52575  53.2150 164.0917 0002441  57.4122 142.5968 15.08831421  1304,6917.906999999997,95.438,541.46,538.0830000000002,0.0
52575.0,STARLINK-3920,PAYLOAD,2022-08-24 22:00:00,15.08860261,0.0002518,53.2153,162.5958,59.1427,152.4536,-0.0012792,-0.00020602,0.0,0 STARLINK-3920,1 52575U 22051AR  22236.91667824 -.00020602  00000-0 -12792-2 0  9997,2 52575  53.2153 162.5958 0002518  59.1427 152.4536 15.08860261  1302,6917.818,95.436,541.425,537.942,0.0
52575.0,STARLINK-3920,PAYLOAD,2022-08-25 14:00:01,15.08834405,0.000242,53.2155,159.6024,58.7688,176.0516,-0.00045423,-7.509e-05,0.0,0 STARLINK-3920,1 52575U 22051AR  22237.58334491 -.00007509  00000-0 -45423-3 0  9991,2 52575  53.2155 159.6024 0002420  58.7688 176.0516 15.08834405  1302,6917.897,95.438,541.437,538.0880000000002,0.0
52575.0,STARLINK-3920,PAYLOAD,2022-08-25 22:00:00,15.08846088,0.0002449,53.2157,158.1069,59.566,186.8018,-0.0013505999999999,-0.00021723,0.0,0 STARLINK-3920,1 52575U 22051AR  22237.91667824 -.00021723  00000-0 -13506-2 0  9997,2 52575  53.2157 158.1069 0002449  59.5660 186.8018 15.08846088  1303,6917.861999999999,95.437,541.4209999999998,538.033,0.0
52575.0,STARLINK-3920,PAYLOAD,2022-08-26 06:00:00,15.08814064,0.0002552,53.2155,156.6117,55.6264,202.3342,0.0025816,0.0004101,0.0,0 STARLINK-3920,1 52575U 22051AR  22238.25001157  .00041010  00000-0  25816-2 0  9992,2 52575  53.2155 156.6117 0002552  55.6264 202.3342 15.08814064 16691,6917.96,95.439,541.59,538.059,0.0
52575.0,STARLINK-3920,PAYLOAD,2022-08-26 14:00:01,15.08819531,0.0002407,53.2157,155.1135,60.882,208.7323,0.0019893,0.00031497,0.0,0 STARLINK-3920,1 52575U 22051AR  22238.58335648  .00031497  00000-0  19893-2 0  9999,2 52575  53.2157 155.1135 0002407  60.8820 208.7323 15.08819531  1307,6917.943,95.439,541.4730000000002,538.143,0.0
52575.0,STARLINK-3920,PAYLOAD,2022-08-26 20:00:01,15.08851933,0.0002447,53.2159,153.9917,63.1751,125.0589,-0.00038124,-6.353e-05,0.0,0 STARLINK-3920,1 52575U 22051AR  22238.83334491 -.00006353  00000-0 -38124-3 0  9996,2 52575  53.2159 153.9917 0002447  63.1751 125.0589 15.08851933 16770,6917.844,95.437,541.4019999999998,538.016,0.0
52575.0,STARLINK-3920,PAYLOAD,2022-08-26 22:00:00,15.08858341,0.0002469,53.2157,153.6181,61.6454,219.4887,-0.0014983,-0.00024068,0.0,0 STARLINK-3920,1 52575U 22051AR  22238.91667824 -.00024068  00000-0 -14983-2 0  9993,2 52575  53.2157 153.6181 0002469  61.6454 219.4887 15.08858341  1307,6917.824000000001,95.436,541.3969999999998,537.981,0.0
52575.0,STARLINK-3920,PAYLOAD,2022-08-27 14:00:01,15.08828668,0.0002423999999999,53.2153,150.6246,63.8476,240.5022,0.0024841999999999,0.00039458,0.0,0 STARLINK-3920,1 52575U 22051AR  22239.58334491  .00039458  00000-0  24842-2 0  9990,2 52575  53.2153 150.6246 0002424  63.8476 240.5022 15.08828668  1306,6917.915,95.438,541.457,538.1030000000002,0.0
52575.0,STARLINK-3920,PAYLOAD,2022-08-27 22:00:00,15.08881915,0.0002459,53.2153,149.1292,63.3457,252.5996,-0.0040791,-0.00064702,0.0,0 STARLINK-3920,1 52575U 22051AR  22239.91667824 -.00064702  00000-0 -40791-2 0  9999,2 52575  53.2153 149.1292 0002459  63.3457 252.5996 15.08881915 16945,6917.752,95.435,541.318,537.9159999999998,0.0
52575.0,STARLINK-3920,PAYLOAD,2022-08-28 14:00:01,15.08816018,0.0002366,53.2147,146.1354,65.2332,273.9361,0.0029281,0.00046591,0.0,0 STARLINK-3920,1 52575U 22051AR  22240.58334491  .00046591  00000-0  29281-2 0  9990,2 52575  53.2147 146.1354 0002366  65.2332 273.9361 15.08816018 17041,6917.954000000002,95.439,541.455,538.182,0.0
52575.0,STARLINK-3920,PAYLOAD,2022-08-28 22:00:00,15.08860228,0.0002452,53.2147,144.6401,63.9749,286.7774,-0.0017659,-0.000283,0.0,0 STARLINK-3920,1 52575U 22051AR  22240.91667824 -.00028300  00000-0 -17659-2 0  9992,2 52575  53.2147 144.6401 0002452  63.9749 286.7774 15.08860228  1304,6917.819,95.436,541.38,537.987,0.0
52575.0,STARLINK-3920,PAYLOAD,2022-08-29 06:00:02,15.08844787,0.0002446,53.2142,143.1442,59.7779,302.6443,-0.0014779,-0.00023736,0.0,0 STARLINK-3920,1 52575U 22051AR  22241.25002315 -.00023736  00000-0 -14779-2 0  9996,2 52575  53.2142 143.1442 0002446  59.7779 302.6443 15.08844787 17149,6917.866,95.437,541.423,538.039,0.0
52575.0,STARLINK-3920,PAYLOAD,2022-08-29 14:00:01,15.08800032,0.0002316999999999,53.2142,141.6461,65.43,308.5292,0.0030927,0.00049223,0.0,0 STARLINK-3920,1 52575U 22051AR  22241.58334491  .00049223  00000-0  30927-2 0  9995,2 52575  53.2142 141.6461 0002317  65.4300 308.5292 15.08800032  1307,6918.003000000002,95.44,541.47,538.265,0.0
52575.0,STARLINK-3920,PAYLOAD,2022-08-29 22:00:00,15.08844838,0.0002455,53.2142,140.1509,63.8114,321.7158,-0.0016261,-0.00026079,0.0,0 STARLINK-3920,1 52575U 22051AR  22241.91667824 -.00026079  00000-0 -16261-2 0  9992,2 52575  53.2142 140.1509 0002455  63.8114 321.7158 15.08844838  1302,6917.866,95.437,541.429,538.0319999999998,0.0
52575.0,STARLINK-3920,PAYLOAD,2022-08-30 06:00:00,15.08835407,0.0002478,53.2139,138.6548,60.355,336.7622,0.00088533,0.00013828,0.0,0 STARLINK-3920,1 52575U 22051AR  22242.25001157  .00013828  00000-0  88533-3 0  9999,2 52575  53.2139 138.6548 0002478  60.3550 336.7622 15.08835407 17293,6917.894,95.438,541.474,538.045,0.0
52575.0,STARLINK-3920,PAYLOAD,2022-08-30 14:00:01,15.08829512,0.0002352,53.214,137.1566,65.9346,342.785,0.001339,0.00021081,0.0,0 STARLINK-3920,1 52575U 22051AR  22242.58334491  .00021081  00000-0  13390-2 0  9993,2 52575  53.2140 137.1566 0002352  65.9346 342.7850 15.08829512  1309,6917.9119999999975,95.438,541.405,538.15,0.0
52575.0,STARLINK-3920,PAYLOAD,2022-08-30 22:00:00,15.08842492,0.0002444,53.2141,135.6614,63.5788,356.7364,-0.0020764,-0.00033186,0.0,0 STARLINK-3920,1 52575U 22051AR  22242.91667824 -.00033186  00000-0 -20764-2 0  9993,2 52575  53.2141 135.6614 0002444  63.5788 356.7364 15.08842492  1300,6917.873000000001,95.437,541.429,538.047,0.0
52575.0,STARLINK-3920,PAYLOAD,2022-08-31 14:00:01,15.08812796,0.000236,53.2142,132.667,66.3953,17.0947,0.0031248,0.00049759,0.0,0 STARLINK-3920,1 52575U 22051AR  22243.58334491  .00049759  00000-0  31248-2 0  9998,2 52575  53.2142 132.6670 0002360  66.3953  17.0947 15.08812796  1300,6917.964,95.439,541.461,538.196,0.0
52575.0,STARLINK-3920,PAYLOAD,2022-08-31 22:00:00,15.0885481,0.0002501999999999,53.2143,131.1719,64.2411,30.8351,-0.0012374,-0.00019937,0.0,0 STARLINK-3920,1 52575U 22051AR  22243.91667824 -.00019937  00000-0 -12374-2 0  9990,2 52575  53.2143 131.1719 0002502  64.2411  30.8351 15.08854810  1308,6917.835,95.437,541.431,537.969,0.0
